[Satellite]
VERSION=1.1
NAME=KITSAT 2 (KO-25)
NICKNAME=KO-25
TLE1=1 22828U 93061F   11059.99188303  .00000019  00000-0  24203-4 0  7025
TLE2=2 22828  98.5071   7.0031 0009592 196.8317 163.2548 14.29877965877149
